NUSAT-26 (M SOMERVILLE) 
1 52184U 22033AD  26186.60030690  .00025581  00000+0  58109-3 0  9993
2 52184  97.2338 265.5449 0006329 166.7663 193.3752 15.42988336107540
NUSAT-33 (ALBANIA-2)    
1 55047U 23001AQ  26186.61250201  .00010673  00000+0  39132-3 0  9994
2 55047  97.3056 247.1667 0005695 355.5014   4.6173 15.28147039195123
NUSAT-35 (WILLIAMINA)   
1 55048U 23001AR  26186.60860095  .00014636  00000+0  42334-3 0  9993
2 55048  97.1838 238.8918 0011574  43.6125 316.6032 15.35644941195231
NUSAT-39 (TIKVAH ALPER) 
1 56201U 23054Z   26186.60809130  .00032149  00000+0  62302-3 0  9992
2 56201  97.3098  96.5388 0003443   9.6733 350.4583 15.47634661181307
NUSAT-38 (MARIA AGNESI) 
1 56202U 23054AA  26186.68687356  .00036694  00000+0  63597-3 0  9991
2 56202  97.3038  97.3163 0010565   5.3350 354.8012 15.50748188181379
NUSAT-37 (JOAN CLARKE)  
1 56203U 23054AB  26186.66719698  .00053294  00000+0  68450-3 0  9993
2 56203  97.2610  94.1120 0006511 172.0960 188.0400 15.58929130181529
NUSAT-40 (C SHOEMAKER)  
1 56943U 23084M   26186.41556072  .00132419  00000+0  69820-3 0  9994
2 56943  97.4872 334.4217 0004585 205.1708 154.9336 15.80274954171684
NUSAT-42 (M WONENBURGER)
1 56966U 23084AL  26186.61520949  .00026419  00000+0  53832-3 0  9993
2 56966  97.5743 331.5044 0006208 176.6863 183.4428 15.46202424170921
NUSAT-44 (MARIA MITCHE*)
1 59122U 24043AA  26186.65408241  .00012446  00000+0  43007-3 0  9998
2 59122  97.5477 327.1998 0006749 163.3580 196.7883 15.30049882130096
NUSAT-50 (NANCY ROMAN)  
1 60493U 24149AB  26186.21921237  .00015692  00000+0  53903-3 0  9997
2 60493  97.3780 267.3527 0004680 126.0435 234.1240 15.30193803104889
NUSAT-48 (HENRIETTA LE*)
1 60498U 24149AG  26185.68478713  .00044360  00000+0  15152-2 0  9995
2 60498  97.3889 267.0980 0004050 199.8805 160.2279 15.30158963104816
NUSAT-49 (KLARA DAN VO*)
1 60500U 24149AJ  26186.18495555  .00015621  00000+0  53563-3 0  9995
2 60500  97.3773 267.3507 0001489 193.9913 166.1286 15.30263379104886
NUSAT-45 (UZMASAT-1)    
1 62640U 25009AH  26186.17397027  .00015806  00000+0  54198-3 0  9992
2 62640  97.3586 267.2132 0000865 220.1961 139.9216 15.30260208 81671
NUSAT-52                
1 66692U 25276AC  26183.62008631  .00006298  00000+0  29674-3 0  9992
2 66692  97.4202 256.9128 0002056 350.3710   9.7486 15.19856589 32769
NUSAT-51 (YVONNE BRILL) 
1 66740U 25276CC  26186.19224077  .00010332  00000+0  47579-3 0  9993
2 66740  97.4202 259.5771 0001627 305.1312  54.9771 15.20485778 33169
