{"fetched_at":"2026-07-06T08:47:11.636Z","source":"https://celestrak.org/NORAD/elements/gp.php?NAME=NUSAT&FORMAT=JSON","constellation":"satellogic","records":[{"OBJECT_NAME":"NUSAT-26 (M SOMERVILLE)","OBJECT_ID":"2022-033AD","EPOCH":"2026-07-05T14:24:26.516160","CLASSIFICATION_TYPE":"U","MEAN_MOTION":15.42988336,"ECCENTRICITY":0.00063297,"INCLINATION":97.2338,"RA_OF_ASC_NODE":265.5449,"ARG_OF_PERICENTER":166.7663,"MEAN_ANOMALY":193.3752,"EPHEMERIS_TYPE":0,"NORAD_CAT_ID":52184,"ELEMENT_SET_NO":999,"REV_AT_EPOCH":10754,"BSTAR":0.00058108928,"MEAN_MOTION_DOT":0.00025581,"MEAN_MOTION_DDOT":0},{"OBJECT_NAME":"NUSAT-33 (ALBANIA-2)","OBJECT_ID":"2023-001AQ","EPOCH":"2026-07-05T14:42:00.173664","CLASSIFICATION_TYPE":"U","MEAN_MOTION":15.28147039,"ECCENTRICITY":0.00056955,"INCLINATION":97.3056,"RA_OF_ASC_NODE":247.1667,"ARG_OF_PERICENTER":355.5014,"MEAN_ANOMALY":4.6173,"EPHEMERIS_TYPE":0,"NORAD_CAT_ID":55047,"ELEMENT_SET_NO":999,"REV_AT_EPOCH":19512,"BSTAR":0.00039132149,"MEAN_MOTION_DOT":0.00010673,"MEAN_MOTION_DDOT":0},{"OBJECT_NAME":"NUSAT-35 (WILLIAMINA)","OBJECT_ID":"2023-001AR","EPOCH":"2026-07-05T14:36:23.122080","CLASSIFICATION_TYPE":"U","MEAN_MOTION":15.35644941,"ECCENTRICITY":0.00115745,"INCLINATION":97.1838,"RA_OF_ASC_NODE":238.8918,"ARG_OF_PERICENTER":43.6125,"MEAN_ANOMALY":316.6032,"EPHEMERIS_TYPE":0,"NORAD_CAT_ID":55048,"ELEMENT_SET_NO":999,"REV_AT_EPOCH":19523,"BSTAR":0.00042334237,"MEAN_MOTION_DOT":0.00014636,"MEAN_MOTION_DDOT":0},{"OBJECT_NAME":"NUSAT-39 (TIKVAH ALPER)","OBJECT_ID":"2023-054Z","EPOCH":"2026-07-05T14:35:39.088320","CLASSIFICATION_TYPE":"U","MEAN_MOTION":15.47634661,"ECCENTRICITY":0.00034436,"INCLINATION":97.3098,"RA_OF_ASC_NODE":96.5388,"ARG_OF_PERICENTER":9.6733,"MEAN_ANOMALY":350.4583,"EPHEMERIS_TYPE":0,"NORAD_CAT_ID":56201,"ELEMENT_SET_NO":999,"REV_AT_EPOCH":18130,"BSTAR":0.00062301604,"MEAN_MOTION_DOT":0.00032149,"MEAN_MOTION_DDOT":0},{"OBJECT_NAME":"NUSAT-38 (MARIA AGNESI)","OBJECT_ID":"2023-054AA","EPOCH":"2026-07-05T16:29:05.875584","CLASSIFICATION_TYPE":"U","MEAN_MOTION":15.50748188,"ECCENTRICITY":0.00105656,"INCLINATION":97.3038,"RA_OF_ASC_NODE":97.3163,"ARG_OF_PERICENTER":5.335,"MEAN_ANOMALY":354.8012,"EPHEMERIS_TYPE":0,"NORAD_CAT_ID":56202,"ELEMENT_SET_NO":999,"REV_AT_EPOCH":18137,"BSTAR":0.00063596845,"MEAN_MOTION_DOT":0.00036694,"MEAN_MOTION_DDOT":0},{"OBJECT_NAME":"NUSAT-37 (JOAN CLARKE)","OBJECT_ID":"2023-054AB","EPOCH":"2026-07-05T16:00:45.819072","CLASSIFICATION_TYPE":"U","MEAN_MOTION":15.5892913,"ECCENTRICITY":0.00065115,"INCLINATION":97.261,"RA_OF_ASC_NODE":94.112,"ARG_OF_PERICENTER":172.096,"MEAN_ANOMALY":188.04,"EPHEMERIS_TYPE":0,"NORAD_CAT_ID":56203,"ELEMENT_SET_NO":999,"REV_AT_EPOCH":18152,"BSTAR":0.00068449801,"MEAN_MOTION_DOT":0.00053294,"MEAN_MOTION_DDOT":0},{"OBJECT_NAME":"NUSAT-40 (C SHOEMAKER)","OBJECT_ID":"2023-084M","EPOCH":"2026-07-05T09:58:24.446208","CLASSIFICATION_TYPE":"U","MEAN_MOTION":15.80274954,"ECCENTRICITY":0.0004586,"INCLINATION":97.4872,"RA_OF_ASC_NODE":334.4217,"ARG_OF_PERICENTER":205.1708,"MEAN_ANOMALY":154.9336,"EPHEMERIS_TYPE":0,"NORAD_CAT_ID":56943,"ELEMENT_SET_NO":999,"REV_AT_EPOCH":17168,"BSTAR":0.0006982,"MEAN_MOTION_DOT":0.00132419,"MEAN_MOTION_DDOT":0},{"OBJECT_NAME":"NUSAT-42 (M WONENBURGER)","OBJECT_ID":"2023-084AL","EPOCH":"2026-07-05T14:45:54.099936","CLASSIFICATION_TYPE":"U","MEAN_MOTION":15.46202424,"ECCENTRICITY":0.00062081,"INCLINATION":97.5743,"RA_OF_ASC_NODE":331.5044,"ARG_OF_PERICENTER":176.6863,"MEAN_ANOMALY":183.4428,"EPHEMERIS_TYPE":0,"NORAD_CAT_ID":56966,"ELEMENT_SET_NO":999,"REV_AT_EPOCH":17092,"BSTAR":0.00053831925,"MEAN_MOTION_DOT":0.00026419,"MEAN_MOTION_DDOT":0},{"OBJECT_NAME":"NUSAT-44 (MARIA MITCHELL)","OBJECT_ID":"2024-043AA","EPOCH":"2026-07-05T15:41:52.720224","CLASSIFICATION_TYPE":"U","MEAN_MOTION":15.30049882,"ECCENTRICITY":0.00067491,"INCLINATION":97.5477,"RA_OF_ASC_NODE":327.1998,"ARG_OF_PERICENTER":163.358,"MEAN_ANOMALY":196.7883,"EPHEMERIS_TYPE":0,"NORAD_CAT_ID":59122,"ELEMENT_SET_NO":999,"REV_AT_EPOCH":13009,"BSTAR":0.00043007235,"MEAN_MOTION_DOT":0.00012446,"MEAN_MOTION_DDOT":0},{"OBJECT_NAME":"NUSAT-50 (NANCY ROMAN)","OBJECT_ID":"2024-149AB","EPOCH":"2026-07-05T05:15:39.947904","CLASSIFICATION_TYPE":"U","MEAN_MOTION":15.30193803,"ECCENTRICITY":0.000468,"INCLINATION":97.378,"RA_OF_ASC_NODE":267.3527,"ARG_OF_PERICENTER":126.0435,"MEAN_ANOMALY":234.124,"EPHEMERIS_TYPE":0,"NORAD_CAT_ID":60493,"ELEMENT_SET_NO":999,"REV_AT_EPOCH":10488,"BSTAR":0.00053903,"MEAN_MOTION_DOT":0.00015692,"MEAN_MOTION_DDOT":0},{"OBJECT_NAME":"NUSAT-48 (HENRIETTA LEAVITT)","OBJECT_ID":"2024-149AG","EPOCH":"2026-07-04T16:26:05.608032","CLASSIFICATION_TYPE":"U","MEAN_MOTION":15.30158963,"ECCENTRICITY":0.000405,"INCLINATION":97.3889,"RA_OF_ASC_NODE":267.098,"ARG_OF_PERICENTER":199.8805,"MEAN_ANOMALY":160.2279,"EPHEMERIS_TYPE":0,"NORAD_CAT_ID":60498,"ELEMENT_SET_NO":999,"REV_AT_EPOCH":10481,"BSTAR":0.0015152,"MEAN_MOTION_DOT":0.0004436,"MEAN_MOTION_DDOT":0},{"OBJECT_NAME":"NUSAT-49 (KLARA DAN VON NEUMANN)","OBJECT_ID":"2024-149AJ","EPOCH":"2026-07-05T04:26:20.158656","CLASSIFICATION_TYPE":"U","MEAN_MOTION":15.30263379,"ECCENTRICITY":0.000149,"INCLINATION":97.3773,"RA_OF_ASC_NODE":267.3507,"ARG_OF_PERICENTER":193.9913,"MEAN_ANOMALY":166.1286,"EPHEMERIS_TYPE":0,"NORAD_CAT_ID":60500,"ELEMENT_SET_NO":999,"REV_AT_EPOCH":10488,"BSTAR":0.00053563,"MEAN_MOTION_DOT":0.00015621,"MEAN_MOTION_DDOT":0},{"OBJECT_NAME":"NUSAT-45 (UZMASAT-1)","OBJECT_ID":"2025-009AH","EPOCH":"2026-07-05T04:10:31.031328","CLASSIFICATION_TYPE":"U","MEAN_MOTION":15.30260208,"ECCENTRICITY":0.0000865,"INCLINATION":97.3586,"RA_OF_ASC_NODE":267.2132,"ARG_OF_PERICENTER":220.1961,"MEAN_ANOMALY":139.9216,"EPHEMERIS_TYPE":0,"NORAD_CAT_ID":62640,"ELEMENT_SET_NO":999,"REV_AT_EPOCH":8167,"BSTAR":0.00054198,"MEAN_MOTION_DOT":0.00015806,"MEAN_MOTION_DDOT":0},{"OBJECT_NAME":"NUSAT-52","OBJECT_ID":"2025-276AC","EPOCH":"2026-07-02T14:52:55.457184","CLASSIFICATION_TYPE":"U","MEAN_MOTION":15.19856589,"ECCENTRICITY":0.00020563,"INCLINATION":97.4202,"RA_OF_ASC_NODE":256.9128,"ARG_OF_PERICENTER":350.371,"MEAN_ANOMALY":9.7486,"EPHEMERIS_TYPE":0,"NORAD_CAT_ID":66692,"ELEMENT_SET_NO":999,"REV_AT_EPOCH":3276,"BSTAR":0.00029673612,"MEAN_MOTION_DOT":0.00006298,"MEAN_MOTION_DDOT":0},{"OBJECT_NAME":"NUSAT-51 (YVONNE BRILL)","OBJECT_ID":"2025-276CC","EPOCH":"2026-07-05T04:36:49.601664","CLASSIFICATION_TYPE":"U","MEAN_MOTION":15.20485778,"ECCENTRICITY":0.0001627,"INCLINATION":97.4202,"RA_OF_ASC_NODE":259.5771,"ARG_OF_PERICENTER":305.1312,"MEAN_ANOMALY":54.9771,"EPHEMERIS_TYPE":0,"NORAD_CAT_ID":66740,"ELEMENT_SET_NO":999,"REV_AT_EPOCH":3316,"BSTAR":0.00047579,"MEAN_MOTION_DOT":0.00010332,"MEAN_MOTION_DDOT":0}]}
